<?xml version="1.0" encoding="UTF-8"?>
<kml xmlns="http://www.opengis.net/kml/2.2">
  <Document>
    <name>Thunderhill racetrack</name>
    <description/>
    <Style id="icon-1899-DB4436-nodesc-normal">
      <IconStyle>
        <color>ff3644db</color>
        <scale>1</scale>
        <Icon>
          <href>https://www.gstatic.com/mapspro/images/stock/503-wht-blank_maps.png</href>
        </Icon>
        <hotSpot x="32" xunits="pixels" y="64" yunits="insetPixels"/>
      </IconStyle>
      <LabelStyle>
        <scale>0</scale>
      </LabelStyle>
      <BalloonStyle>
        <text><![CDATA[<h3>$[name]</h3>]]></text>
      </BalloonStyle>
    </Style>
    <Style id="icon-1899-DB4436-nodesc-highlight">
      <IconStyle>
        <color>ff3644db</color>
        <scale>1</scale>
        <Icon>
          <href>https://www.gstatic.com/mapspro/images/stock/503-wht-blank_maps.png</href>
        </Icon>
        <hotSpot x="32" xunits="pixels" y="64" yunits="insetPixels"/>
      </IconStyle>
      <LabelStyle>
        <scale>1</scale>
      </LabelStyle>
      <BalloonStyle>
        <text><![CDATA[<h3>$[name]</h3>]]></text>
      </BalloonStyle>
    </Style>
    <StyleMap id="icon-1899-DB4436-nodesc">
      <Pair>
        <key>normal</key>
        <styleUrl>#icon-1899-DB4436-nodesc-normal</styleUrl>
      </Pair>
      <Pair>
        <key>highlight</key>
        <styleUrl>#icon-1899-DB4436-nodesc-highlight</styleUrl>
      </Pair>
    </StyleMap>
    <Style id="line-1267FF-5000-nodesc-normal">
      <LineStyle>
        <color>ffff6712</color>
        <width>5</width>
      </LineStyle>
      <BalloonStyle>
        <text><![CDATA[<h3>$[name]</h3>]]></text>
      </BalloonStyle>
    </Style>
    <Style id="line-1267FF-5000-nodesc-highlight">
      <LineStyle>
        <color>ffff6712</color>
        <width>7.5</width>
      </LineStyle>
      <BalloonStyle>
        <text><![CDATA[<h3>$[name]</h3>]]></text>
      </BalloonStyle>
    </Style>
    <StyleMap id="line-1267FF-5000-nodesc">
      <Pair>
        <key>normal</key>
        <styleUrl>#line-1267FF-5000-nodesc-normal</styleUrl>
      </Pair>
      <Pair>
        <key>highlight</key>
        <styleUrl>#line-1267FF-5000-nodesc-highlight</styleUrl>
      </Pair>
    </StyleMap>
    <Folder>
      <name>Untitled layer</name>
    </Folder>
    <Folder>
      <name>Directions from 5250 CA-162, Willows, CA 95988, USA to 5250 CA-162, Willows, CA 95988, USA</name>
      <Placemark>
        <name>Directions from 5250 CA-162, Willows, CA 95988, USA to 5250 CA-162, Willows, CA 95988, USA</name>
        <styleUrl>#line-1267FF-5000-nodesc</styleUrl>
        <LineString>
          <tessellate>1</tessellate>
          <coordinates>
            -122.33118,39.53948,0
            -122.33118,39.53935,0
            -122.33118,39.53919,0
            -122.33117,39.53879,0
            -122.33117,39.53863,0
            -122.33118,39.53859,0
            -122.33119,39.53842,0
            -122.33119,39.53819,0
            -122.33119,39.53802,0
            -122.33119,39.53748,0
            -122.33119,39.53746,0
            -122.33119,39.53728,0
            -122.33119,39.53712,0
            -122.33114,39.53694,0
            -122.33114,39.53693,0
            -122.33106,39.53678,0
            -122.33093,39.53664,0
            -122.33083,39.53655,0
            -122.33069,39.53647,0
            -122.33049,39.5364,0
            -122.33031,39.53635,0
            -122.33008,39.5363,0
            -122.32999,39.53627,0
            -122.32965,39.53617,0
            -122.32923,39.53607,0
            -122.32896,39.53604,0
            -122.32862,39.53596,0
            -122.32829,39.53588,0
            -122.32796,39.53581,0
            -122.32779,39.53579,0
            -122.32762,39.53579,0
            -122.32757,39.53579,0
            -122.3274,39.53582,0
            -122.32734,39.53583,0
            -122.32732,39.53584,0
            -122.32728,39.53585,0
            -122.32718,39.53589,0
            -122.32697,39.536,0
            -122.32683,39.53612,0
            -122.3268,39.53616,0
            -122.32672,39.53625,0
            -122.32669,39.53632,0
            -122.32664,39.53642,0
            -122.32662,39.53649,0
            -122.32662,39.5365,0
            -122.3266,39.53656,0
            -122.3266,39.53674,0
            -122.32663,39.53685,0
            -122.32664,39.53688,0
            -122.32671,39.53702,0
            -122.32672,39.53704,0
            -122.32679,39.53713,0
            -122.32682,39.53718,0
            -122.32682,39.53719,0
            -122.32703,39.53735,0
            -122.32716,39.53742,0
            -122.32717,39.53742,0
            -122.32732,39.53747,0
            -122.32759,39.53754,0
            -122.32773,39.53757,0
            -122.32806,39.53764,0
            -122.3284,39.53772,0
            -122.32855,39.53775,0
            -122.32867,39.53779,0
            -122.32868,39.53779,0
            -122.32874,39.53781,0
            -122.3289,39.53785,0
            -122.32895,39.53786,0
            -122.3291,39.53793,0
            -122.3291,39.53794,0
            -122.32921,39.53799,0
            -122.3294,39.5382,0
            -122.3295,39.53839,0
            -122.3295,39.53849,0
            -122.3295,39.53854,0
            -122.32948,39.53871,0
            -122.32948,39.53872,0
            -122.32947,39.53882,0
            -122.32937,39.53896,0
            -122.32927,39.53906,0
            -122.32912,39.53917,0
            -122.32886,39.53929,0
            -122.32876,39.53939,0
            -122.32866,39.53948,0
            -122.32865,39.53949,0
            -122.32862,39.53955,0
            -122.32859,39.53966,0
            -122.32859,39.53969,0
            -122.32862,39.53981,0
            -122.32862,39.53984,0
            -122.32865,39.53992,0
            -122.3287,39.54001,0
            -122.32871,39.54001,0
            -122.32878,39.5401,0
            -122.32895,39.54031,0
            -122.32907,39.54047,0
            -122.32929,39.54064,0
            -122.32935,39.5407,0
            -122.32946,39.54078,0
            -122.32951,39.54083,0
            -122.32952,39.54083,0
            -122.32966,39.54097,0
            -122.32975,39.54107,0
            -122.32978,39.54112,0
            -122.32988,39.54128,0
            -122.32996,39.54145,0
            -122.32998,39.54152,0
            -122.32999,39.54163,0
            -122.32998,39.54174,0
            -122.32996,39.54181,0
            -122.3299,39.54198,0
            -122.32989,39.542,0
            -122.32977,39.54213,0
            -122.32967,39.54225,0
            -122.32954,39.54234,0
            -122.32932,39.54248,0
            -122.3288,39.54277,0
            -122.32871,39.54283,0
            -122.32863,39.5429,0
            -122.32861,39.54293,0
            -122.32854,39.54304,0
            -122.32853,39.54307,0
            -122.32851,39.54312,0
            -122.32848,39.54326,0
            -122.3285,39.54337,0
            -122.32851,39.54342,0
            -122.32853,39.54351,0
            -122.32859,39.54358,0
            -122.32859,39.54359,0
            -122.32868,39.5437,0
            -122.32888,39.54383,0
            -122.32891,39.54385,0
            -122.32908,39.54398,0
            -122.32949,39.54429,0
            -122.32971,39.54444,0
            -122.32991,39.54464,0
            -122.33012,39.54474,0
            -122.33028,39.54483,0
            -122.33043,39.54489,0
            -122.33044,39.54489,0
            -122.33063,39.54495,0
            -122.33089,39.545,0
            -122.33123,39.545,0
            -122.33129,39.54501,0
            -122.33192,39.54502,0
            -122.33211,39.54503,0
            -122.33216,39.54503,0
            -122.33289,39.545,0
            -122.33307,39.545,0
            -122.33324,39.54498,0
            -122.33335,39.54495,0
            -122.33336,39.54495,0
            -122.33343,39.54492,0
            -122.33352,39.54488,0
            -122.33356,39.54486,0
            -122.33366,39.5448,0
            -122.33376,39.54473,0
            -122.33406,39.5445,0
            -122.33442,39.54419,0
            -122.33454,39.5441,0
            -122.3347,39.54398,0
            -122.33503,39.54373,0
            -122.33504,39.54372,0
            -122.3352,39.5436,0
            -122.33576,39.54315,0
            -122.33599,39.54297,0
            -122.33608,39.5429,0
            -122.33609,39.54289,0
            -122.33614,39.54284,0
            -122.33617,39.54282,0
            -122.33625,39.54273,0
            -122.33627,39.54269,0
            -122.33628,39.54267,0
            -122.3363,39.5426,0
            -122.3363,39.54258,0
            -122.3363,39.54251,0
            -122.33626,39.54242,0
            -122.33626,39.54241,0
            -122.33622,39.54235,0
            -122.33615,39.54225,0
            -122.33612,39.5422,0
            -122.33612,39.54219,0
            -122.33606,39.54208,0
            -122.33603,39.54202,0
            -122.33603,39.54201,0
            -122.33598,39.54191,0
            -122.33591,39.54177,0
            -122.33589,39.54172,0
            -122.33583,39.5416,0
            -122.33582,39.5416,0
            -122.3358,39.54155,0
            -122.33573,39.54137,0
            -122.3357,39.54125,0
            -122.33568,39.54119,0
            -122.33568,39.54114,0
            -122.33567,39.54108,0
            -122.33565,39.5409,0
            -122.33564,39.54072,0
            -122.33564,39.54069,0
            -122.33564,39.54054,0
            -122.33564,39.54036,0
            -122.33563,39.54018,0
            -122.33563,39.54,0
            -122.33562,39.53994,0
            -122.33561,39.53982,0
            -122.33557,39.53946,0
            -122.33551,39.53905,0
            -122.3355,39.53901,0
            -122.33545,39.53865,0
            -122.33544,39.53859,0
            -122.33542,39.53847,0
            -122.33541,39.53839,0
            -122.3354,39.5383,0
            -122.33539,39.53827,0
            -122.33536,39.53821,0
            -122.33529,39.53813,0
            -122.33518,39.53806,0
            -122.3351,39.53803,0
            -122.33502,39.53801,0
            -122.33488,39.538,0
            -122.33487,39.538,0
            -122.33443,39.53797,0
            -122.33406,39.53794,0
            -122.33396,39.53793,0
            -122.33387,39.53793,0
            -122.33371,39.53792,0
            -122.33362,39.53793,0
            -122.33358,39.53794,0
            -122.33354,39.53796,0
            -122.33351,39.53797,0
            -122.3335,39.53799,0
            -122.33346,39.53803,0
            -122.33343,39.53808,0
            -122.33342,39.53811,0
            -122.33342,39.53813,0
            -122.33342,39.53815,0
            -122.33341,39.53821,0
            -122.33341,39.53828,0
            -122.33341,39.53838,0
            -122.33342,39.53844,0
            -122.33342,39.53853,0
            -122.33341,39.53856,0
            -122.33341,39.53863,0
            -122.33338,39.53872,0
            -122.33335,39.53878,0
            -122.33329,39.53886,0
            -122.33326,39.53889,0
            -122.33322,39.53892,0
            -122.33314,39.53897,0
            -122.33307,39.53902,0
            -122.33303,39.53908,0
            -122.33299,39.53912,0
            -122.33296,39.53916,0
            -122.33294,39.5392,0
            -122.33287,39.5393,0
            -122.33281,39.53942,0
            -122.3328,39.53945,0
            -122.33278,39.53951,0
            -122.33276,39.53963,0
            -122.33276,39.53981,0
            -122.33276,39.54018,0
            -122.33276,39.5402,0
            -122.33277,39.54089,0
            -122.33277,39.54123,0
            -122.33278,39.54215,0
            -122.33278,39.54225,0
            -122.33278,39.54246,0
            -122.33278,39.54251,0
            -122.33279,39.54269,0
            -122.33281,39.54334,0
            -122.33283,39.54354,0
            -122.33283,39.5436,0
            -122.33283,39.54366,0
            -122.33282,39.54373,0
            -122.33279,39.5438,0
            -122.33276,39.54386,0
            -122.33272,39.54392,0
            -122.33267,39.54396,0
            -122.33262,39.544,0
            -122.33255,39.54403,0
            -122.3325,39.54405,0
            -122.33245,39.54406,0
            -122.33236,39.54408,0
            -122.33227,39.54407,0
            -122.3322,39.54405,0
            -122.3321,39.544,0
            -122.33202,39.54395,0
            -122.33168,39.54377,0
            -122.3316,39.54371,0
            -122.33151,39.54365,0
            -122.33141,39.54359,0
            -122.33134,39.54354,0
            -122.33129,39.5435,0
            -122.33127,39.54345,0
            -122.33124,39.54341,0
            -122.33121,39.54333,0
            -122.33119,39.54267,0
            -122.33119,39.54108,0
            -122.33118,39.54063,0
            -122.33118,39.54045,0
            -122.33118,39.54022,0
            -122.33118,39.53992,0
            -122.33118,39.53948,0
          </coordinates>
        </LineString>
      </Placemark>
      <Placemark>
        <name>5250 CA-162, Willows, CA 95988, USA</name>
        <styleUrl>#icon-1899-DB4436-nodesc</styleUrl>
        <Point>
          <coordinates>
            -122.3311781,39.5394816,0
          </coordinates>
        </Point>
      </Placemark>
      <Placemark>
        <name>5250 CA-162, Willows, CA 95988, USA</name>
        <styleUrl>#icon-1899-DB4436-nodesc</styleUrl>
        <Point>
          <coordinates>
            -122.3311781,39.5394814,0
          </coordinates>
        </Point>
      </Placemark>
    </Folder>
  </Document>
</kml>
